NORAD_CAT_ID,OBJECT_NAME,OBJECT_TYPE,EPOCH,MEAN_MOTION,ECCENTRICITY,INCLINATION,RA_OF_ASC_NODE,ARG_OF_PERICENTER,MEAN_ANOMALY,BSTAR,MEAN_MOTION_DOT,MEAN_MOTION_DDOT,TLE_LINE0,TLE_LINE1,TLE_LINE2,SEMIMAJOR_AXIS,PERIOD,APOGEE,PERIGEE,DECAYED
51779.0,STARLINK-3611,PAYLOAD,2023-04-21 12:04:25,15.08837099,0.0001282,53.2177,27.0543,97.7042,262.4096,0.0001912,2.756e-05,0.0,0 STARLINK-3611,1 51779U 22017M   23111.50307657  .00002756  00000-0  19120-3 0  9998,2 51779  53.2177  27.0543 0001282  97.7042 262.4096 15.08837099 63579,6917.889,95.438,540.641,538.867,0.0
51779.0,STARLINK-3611,PAYLOAD,2023-04-22 00:47:30,15.08846782,9.59e-05,53.217,24.6791,66.9974,293.1119,0.00017387,2.481e-05,0.0,0 STARLINK-3611,1 51779U 22017M   23112.03299133  .00002481  00000-0  17387-3 0  9994,2 51779  53.2170  24.6791 0000959  66.9974 293.1119 15.08846782 63657,6917.86,95.437,540.388,539.061,0.0
51779.0,STARLINK-3611,PAYLOAD,2023-04-23 00:38:17,15.08856185,0.0001031,53.2173,20.2206,92.71,267.401,0.00026954,4.006e-05,0.0,0 STARLINK-3611,1 51779U 22017M   23113.02658659  .00004006  00000-0  26954-3 0  9991,2 51779  53.2173  20.2206 0001031  92.7100 267.4010 15.08856185 65297,6917.831,95.437,540.409,538.983,0.0
51779.0,STARLINK-3611,PAYLOAD,2023-04-23 18:07:31,15.08847995,0.0001134,53.2181,16.9475,89.9484,270.1638,0.00011028,1.468e-05,0.0,0 STARLINK-3611,1 51779U 22017M   23113.75522707  .00001468  00000-0  11028-3 0  9990,2 51779  53.2181  16.9475 0001134  89.9484 270.1638 15.08847995 65402,6917.856,95.437,540.505,538.936,0.0
51779.0,STARLINK-3611,PAYLOAD,2023-04-24 02:04:26,15.08854858,0.0001141,53.2176,15.4615,91.6701,268.4422,0.00028547,4.26e-05,0.0,0 STARLINK-3611,1 51779U 22017M   23114.08642291  .00004260  00000-0  28547-3 0  9995,2 51779  53.2176  15.4615 0001141  91.6701 268.4422 15.08854858 63962,6917.835,95.437,540.489,538.911,0.0
51779.0,STARLINK-3611,PAYLOAD,2023-04-25 00:19:49,15.08884751,0.0001079,53.2171,11.2977,94.5133,265.5983,0.00081774,0.00012766,0.0,0 STARLINK-3611,1 51779U 22017M   23115.01376319  .00012766  00000-0  81774-3 0  9995,2 51779  53.2171  11.2977 0001079  94.5133 265.5983 15.08884751 64105,6917.744,95.435,540.355,538.862,0.0
51779.0,STARLINK-3611,PAYLOAD,2023-04-26 04:56:47,15.08813749,0.0001238,53.2165,5.9472,94.5212,265.5921,-0.00035868,-5.988e-05,0.0,0 STARLINK-3611,1 51779U 22017M   23116.20610869 -.00005988  00000-0 -35868-3 0  9991,2 51779  53.2165   5.9472 0001238  94.5212 265.5921 15.08813749 64283,6917.961,95.439,540.682,538.969,0.0
51779.0,STARLINK-3611,PAYLOAD,2023-04-26 22:26:03,15.0882288,0.0001315,53.2165,2.676,99.4698,260.6443,0.0005824,8.989e-05,0.0,0 STARLINK-3611,1 51779U 22017M   23116.93475962  .00008989  00000-0  58240-3 0  9995,2 51779  53.2165   2.6760 0001315  99.4698 260.6443 15.08822880 64398,6917.933,95.439,540.707,538.888,0.0
51779.0,STARLINK-3611,PAYLOAD,2023-04-28 01:27:36,15.08862615,0.0001265,53.2164,357.6187,104.9359,255.1773,0.001072,0.00016825,0.0,0 STARLINK-3611,1 51779U 22017M   23118.06083628  .00016825  00000-0  10720-2 0  9993,2 51779  53.2164 357.6187 0001265 104.9359 255.1773 15.08862615 66053,6917.811,95.436,540.551,538.801,0.0
51779.0,STARLINK-3611,PAYLOAD,2023-04-28 09:24:32,15.08844897,0.0001274,53.2165,356.1332,79.0256,281.0879,0.00029293,4.378e-05,0.0,0 STARLINK-3611,1 51779U 22017M   23118.39203966  .00004378  00000-0  29293-3 0  9994,2 51779  53.2165 356.1332 0001274  79.0256 281.0879 15.08844897 66101,6917.865,95.437,540.612,538.849,0.0
51779.0,STARLINK-3611,PAYLOAD,2023-04-28 22:07:37,15.08834886,0.0001423,53.217,353.7537,86.0939,274.0215,0.00036513,5.527e-05,0.0,0 STARLINK-3611,1 51779U 22017M   23118.92196402  .00005527  00000-0  36513-3 0  9999,2 51779  53.2170 353.7537 0001423  86.0939 274.0215 15.08834886 66180,6917.896,95.438,540.745,538.777,0.0
51779.0,STARLINK-3611,PAYLOAD,2023-04-30 01:09:10,15.08859772,0.0001282,53.2167,348.6982,80.0036,280.11,0.00071916,0.00011182,0.0,0 STARLINK-3611,1 51779U 22017M   23120.04803758  .00011182  00000-0  71916-3 0  9994,2 51779  53.2167 348.6982 0001282  80.0036 280.1100 15.08859772 66359,6917.82,95.436,540.572,538.798,0.0
51779.0,STARLINK-3611,PAYLOAD,2023-04-30 15:27:38,15.08847078,0.0001363,53.2167,346.0221,76.0516,284.0628,0.00019499,2.817e-05,0.0,0 STARLINK-3611,1 51779U 22017M   23120.64419968  .00002817  00000-0  19499-3 0  9999,2 51779  53.2167 346.0221 0001363  76.0516 284.0628 15.08847078 66449,6917.859,95.437,540.667,538.781,0.0
51779.0,STARLINK-3611,PAYLOAD,2023-04-30 21:49:11,15.08844119,0.0001096,53.2171,344.8317,97.2772,262.8344,0.0001592,2.247e-05,0.0,0 STARLINK-3611,1 51779U 22017M   23120.90915834  .00002247  00000-0  15920-3 0  9993,2 51779  53.2171 344.8317 0001096  97.2772 262.8344 15.08844119 64998,6917.868,95.437,540.491,538.975,0.0
51779.0,STARLINK-3611,PAYLOAD,2023-05-01 21:39:58,15.0884276,0.0001138,53.2171,340.3701,93.4004,266.7118,0.00015558,2.189e-05,0.0,0 STARLINK-3611,1 51779U 22017M   23121.90276092  .00002189  00000-0  15558-3 0  9992,2 51779  53.2171 340.3701 0001138  93.4004 266.7118 15.08842760 66634,6917.872,95.437,540.524,538.95,0.0
51779.0,STARLINK-3611,PAYLOAD,2023-05-02 21:30:45,15.08845854,0.0001106,53.2156,335.9127,102.9011,257.2105,0.00024092,3.549e-05,0.0,0 STARLINK-3611,1 51779U 22017M   23122.89636009  .00003549  00000-0  24092-3 0  9993,2 51779  53.2156 335.9127 0001106 102.9011 257.2105 15.08845854 65297,6917.862,95.437,540.493,538.962,0.0
51779.0,STARLINK-3611,PAYLOAD,2023-05-03 00:41:31,15.08850976,0.0001139,53.2159,335.3165,99.0928,261.0193,0.00031935,4.8e-05,0.0,0 STARLINK-3611,1 51779U 22017M   23123.02883786  .00004800  00000-0  31935-3 0  9990,2 51779  53.2159 335.3165 0001139  99.0928 261.0193 15.08850976 66804,6917.847,95.437,540.5,538.924,0.0
51779.0,STARLINK-3611,PAYLOAD,2023-05-03 07:03:04,15.08845086,9.15e-05,53.2151,334.1263,95.4791,264.6306,0.00020967,3.051e-05,0.0,0 STARLINK-3611,1 51779U 22017M   23123.29379942  .00003051  00000-0  20967-3 0  9993,2 51779  53.2151 334.1263 0000915  95.4791 264.6306 15.08845086 66846,6917.865,95.437,540.363,539.097,0.0
51779.0,STARLINK-3611,PAYLOAD,2023-05-03 19:46:09,15.08834354,0.0001275,53.2158,331.7475,83.805,276.3088,-3.3655e-05,-8.23e-06,0.0,0 STARLINK-3611,1 51779U 22017M   23123.82372597 -.00000823  00000-0 -33655-4 0  9996,2 51779  53.2158 331.7475 0001275  83.8050 276.3088 15.08834354 66922,6917.898,95.438,540.645,538.881,0.0
51779.0,STARLINK-3611,PAYLOAD,2023-05-03 21:21:32,15.08835428,0.0001218,53.216,331.4502,83.0993,277.0138,-2.7599e-05,-7.27e-06,0.0,0 STARLINK-3611,1 51779U 22017M   23123.88996516 -.00000727  00000-0 -27599-4 0  9998,2 51779  53.2160 331.4502 0001218  83.0993 277.0138 15.08835428 65441,6917.894,95.438,540.602,538.917,0.0
51779.0,STARLINK-3611,PAYLOAD,2023-05-04 06:53:51,15.08841033,0.0001106,53.2166,329.668,89.882,270.2298,8.3247e-05,1.037e-05,0.0,0 STARLINK-3611,1 51779U 22017M   23124.28740492  .00001037  00000-0  83247-4 0  9998,2 51779  53.2166 329.6680 0001106  89.8820 270.2298 15.08841033 65500,6917.877,95.437,540.507,538.977,0.0
51779.0,STARLINK-3611,PAYLOAD,2023-05-04 21:12:19,15.08850659,0.0001099,53.2164,326.9916,89.2905,270.8213,0.0001189,1.606e-05,0.0,0 STARLINK-3611,1 51779U 22017M   23124.88355763  .00001606  00000-0  11890-3 0  9993,2 51779  53.2164 326.9916 0001099  89.2905 270.8213 15.08850659 65595,6917.848,95.437,540.473,538.953,0.0
51779.0,STARLINK-3611,PAYLOAD,2023-05-04 22:47:42,15.0885157,0.0001132,53.2155,326.6942,85.5848,274.5273,0.00019067,2.749e-05,0.0,0 STARLINK-3611,1 51779U 22017M   23124.94979724  .00002749  00000-0  19067-3 0  9992,2 51779  53.2155 326.6942 0001132  85.5848 274.5273 15.08851570 67091,6917.845,95.437,540.493,538.927,0.0
51779.0,STARLINK-3611,PAYLOAD,2023-05-05 13:06:11,15.08840434,0.000133,53.2152,324.0197,70.5834,289.5301,0.00015182,2.129e-05,0.0,0 STARLINK-3611,1 51779U 22017M   23125.54596393  .00002129  00000-0  15182-3 0  9992,2 51779  53.2152 324.0197 0001330  70.5834 289.5301 15.08840434 67186,6917.879,95.438,540.664,538.824,0.0
51779.0,STARLINK-3611,PAYLOAD,2023-05-05 19:27:43,15.0884025,0.0001207,53.2157,322.8277,84.0831,276.0299,0.00015616,2.198e-05,0.0,0 STARLINK-3611,1 51779U 22017M   23125.81092435  .00002198  00000-0  15616-3 0  9998,2 51779  53.2157 322.8277 0001207  84.0831 276.0299 15.08840250 65738,6917.88,95.438,540.58,538.91,0.0
51779.0,STARLINK-3611,PAYLOAD,2023-05-05 22:38:29,15.08845161,0.0001179,53.216,322.2322,85.1482,274.9645,0.00016332,2.313e-05,0.0,0 STARLINK-3611,1 51779U 22017M   23125.94340187  .00002313  00000-0  16332-3 0  9997,2 51779  53.2160 322.2322 0001179  85.1482 274.9645 15.08845161 65759,6917.865,95.437,540.545,538.914,0.0
51779.0,STARLINK-3611,PAYLOAD,2023-05-06 19:18:30,15.0884943,0.0001253,53.2164,318.3654,92.3093,267.8042,0.00020287,2.943e-05,0.0,0 STARLINK-3611,1 51779U 22017M   23126.80452015  .00002943  00000-0  20287-3 0  9990,2 51779  53.2164 318.3654 0001253  92.3093 267.8042 15.08849430 67373,6917.852,95.437,540.583,538.85,0.0
51779.0,STARLINK-3611,PAYLOAD,2023-05-07 19:09:18,15.08837657,0.0001189,53.2158,313.9051,94.8984,265.2144,5.4533e-05,5.8e-06,0.0,0 STARLINK-3611,1 51779U 22017M   23127.79812761  .00000580  00000-0  54533-4 0  9994,2 51779  53.2158 313.9051 0001189  94.8984 265.2144 15.08837657 67522,6917.888,95.438,540.575,538.93,0.0
51779.0,STARLINK-3611,PAYLOAD,2023-05-08 19:00:04,15.08846993,0.0001044,53.2154,309.4469,94.9883,265.1228,0.00012429,1.691e-05,0.0,0 STARLINK-3611,1 51779U 22017M   23128.79172410  .00001691  00000-0  12429-3 0  9996,2 51779  53.2154 309.4469 0001044  94.9883 265.1228 15.08846993 66186,6917.859,95.437,540.446,539.002,0.0
51779.0,STARLINK-3611,PAYLOAD,2023-05-09 14:04:43,15.08832123,0.0001132,53.215,305.8786,97.4106,262.7015,0.0002166,3.16e-05,0.0,0 STARLINK-3611,1 51779U 22017M   23129.58661154  .00003160  00000-0  21660-3 0  9992,2 51779  53.2150 305.8786 0001132  97.4106 262.7015 15.08832123 66309,6917.904,95.438,540.553,538.986,0.0
